{"type": "FeatureCollection", "features": [ {"type": "Feature", "properties": {"norad_id": 29853, "name": "FENGYUN 1C DEB", "group": "fengyun-1c-debris", "lat": -18.5069963835271, "lon": -79.40032270247593, "alt_km": 828.0028310085108, "timestamp": "2025-12-07T09:35:10.062062+00:00", "meta": {"OBJECT_NAME": "FENGYUN 1C DEB", "OBJECT_ID": "1999-025EX", "EPOCH": "2025-12-06T20:33:45.798912", "MEAN_MOTION": 13.93759843, "ECCENTRICITY": 0.01611473, "INCLINATION": 98.4584, "RA_OF_ASC_NODE": 102.9578, "ARG_OF_PERICENTER": 238.849, "MEAN_ANOMALY": 119.6784, "EPHEMERIS_TYPE": 0, "CLASSIFICATION_TYPE": "U", "NORAD_CAT_ID": 29853, "ELEMENT_SET_NO": 999, "REV_AT_EPOCH": 95587, "BSTAR": 0.0026503524, "MEAN_MOTION_DOT": 3.847e-05, "MEAN_MOTION_DDOT": 0}, "tle": {"line1": "1 29853U 99025EX  25340.85678008  .00003847  00000+0  26504-2 0  9998", "line2": "2 29853  98.4584 102.9578 0161147 238.8490 119.6784 13.93759843955875"}}, "geometry": {"type": "Point", "coordinates": [-79.40032270247593, -18.5069963835271]}}, {"type": "Feature", "properties": {"norad_id": 29854, "name": "FENGYUN 1C DEB", "group": "fengyun-1c-debris", "lat": -68.04807886212569, "lon": 165.75712539997778, "alt_km": 1034.9329210847545, "timestamp": "2025-12-07T09:35:10.062072+00:00", "meta": {"OBJECT_NAME": "FENGYUN 1C DEB", "OBJECT_ID": "1999-025EY", "EPOCH": "2025-12-06T22:23:31.720128", "MEAN_MOTION": 13.83335969, "ECCENTRICITY": 0.0147473, "INCLINATION": 98.9273, "RA_OF_ASC_NODE": 142.3613, "ARG_OF_PERICENTER": 66.4253, "MEAN_ANOMALY": 63.4573, "EPHEMERIS_TYPE": 0, "CLASSIFICATION_TYPE": "U", "NORAD_CAT_ID": 29854, "ELEMENT_SET_NO": 999, "REV_AT_EPOCH": 95263, "BSTAR": 0.00037535586, "MEAN_MOTION_DOT": 4.08e-06, "MEAN_MOTION_DDOT": 0}, "tle": {"line1": "1 29854U 99025EY  25340.93300602  .00000408  00000+0  37536-3 0  9998", "line2": "2 29854  98.9273 142.3613 0147473  66.4253  63.4573 13.83335969952633"}}, "geometry": {"type": "Point", "coordinates": [165.75712539997778, -68.04807886212569]}}, {"type": "Feature", "properties": {"norad_id": 29855, "name": "FENGYUN 1C DEB", "group": "fengyun-1c-debris", "lat": 70.27992460914615, "lon": 127.30972354683674, "alt_km": 788.8497374791077, "timestamp": "2025-12-07T09:35:10.062083+00:00", "meta": {"OBJECT_NAME": "FENGYUN 1C DEB", "OBJECT_ID": "1999-025EZ", "EPOCH": "2025-12-06T19:37:37.902720", "MEAN_MOTION": 14.01515294, "ECCENTRICITY": 0.01840228, "INCLINATION": 98.1815, "RA_OF_ASC_NODE": 283.1251, "ARG_OF_PERICENTER": 62.8286, "MEAN_ANOMALY": 350.7128, "EPHEMERIS_TYPE": 0, "CLASSIFICATION_TYPE": "U", "NORAD_CAT_ID": 29855, "ELEMENT_SET_NO": 999, "REV_AT_EPOCH": 95629, "BSTAR": 0.0035110031, "MEAN_MOTION_DOT": 6.121e-05, "MEAN_MOTION_DDOT": 0}, "tle": {"line1": "1 29855U 99025EZ  25340.81779980  .00006121  00000+0  35110-2 0  9998", "line2": "2 29855  98.1815 283.1251 0184022  62.8286 350.7128 14.01515294956293"}}, "geometry": {"type": "Point", "coordinates": [127.30972354683674, 70.27992460914615]}}, {"type": "Feature", "properties": {"norad_id": 29856, "name": "FENGYUN 1C DEB", "group": "fengyun-1c-debris", "lat": -20.427606325925574, "lon": -108.05908061582666, "alt_km": 809.3432634174706, "timestamp": "2025-12-07T09:35:10.062093+00:00", "meta": {"OBJECT_NAME": "FENGYUN 1C DEB", "OBJECT_ID": "1999-025FA", "EPOCH": "2025-12-06T00:17:55.224672", "MEAN_MOTION": 14.47486794, "ECCENTRICITY": 0.0263013, "INCLINATION": 98.6901, "RA_OF_ASC_NODE": 73.7804, "ARG_OF_PERICENTER": 318.2657, "MEAN_ANOMALY": 221.6653, "EPHEMERIS_TYPE": 0, "CLASSIFICATION_TYPE": "U", "NORAD_CAT_ID": 29856, "ELEMENT_SET_NO": 999, "REV_AT_EPOCH": 96277, "BSTAR": 0.0032303786, "MEAN_MOTION_DOT": 0.00018349, "MEAN_MOTION_DDOT": 0}, "tle": {"line1": "1 29856U 99025FA  25340.01244473  .00018349  00000+0  32304-2 0  9992", "line2": "2 29856  98.6901  73.7804 0263013 318.2657 221.6653 14.47486794962771"}}, "geometry": {"type": "Point", "coordinates": [-108.05908061582666, -20.427606325925574]}}, {"type": "Feature", "properties": {"norad_id": 29857, "name": "FENGYUN 1C DEB", "group": "fengyun-1c-debris", "lat": -7.1447698246982725, "lon": 168.23185429771308, "alt_km": 1033.991608314368, "timestamp": "2025-12-07T09:35:10.062103+00:00", "meta": {"OBJECT_NAME": "FENGYUN 1C DEB", "OBJECT_ID": "1999-025FB", "EPOCH": "2025-12-06T11:48:47.935008", "MEAN_MOTION": 13.81842497, "ECCENTRICITY": 0.01930304, "INCLINATION": 98.4214, "RA_OF_ASC_NODE": 348.485, "ARG_OF_PERICENTER": 311.5073, "MEAN_ANOMALY": 46.9656, "EPHEMERIS_TYPE": 0, "CLASSIFICATION_TYPE": "U", "NORAD_CAT_ID": 29857, "ELEMENT_SET_NO": 999, "REV_AT_EPOCH": 94689, "BSTAR": 0.0030601669, "MEAN_MOTION_DOT": 3.741e-05, "MEAN_MOTION_DDOT": 0}, "tle": {"line1": "1 29857U 99025FB  25340.49222147  .00003741  00000+0  30602-2 0  9998", "line2": "2 29857  98.4214 348.4850 0193030 311.5073  46.9656 13.81842497946898"}}, "geometry": {"type": "Point", "coordinates": [168.23185429771308, -7.1447698246982725]}}, {"type": "Feature", "properties": {"norad_id": 29858, "name": "FENGYUN 1C DEB", "group": "fengyun-1c-debris", "lat": 8.499749202470642, "lon": -95.42645299612383, "alt_km": 977.5313602691367, "timestamp": "2025-12-07T09:35:10.062113+00:00", "meta": {"OBJECT_NAME": "FENGYUN 1C DEB", "OBJECT_ID": "1999-025FC", "EPOCH": "2025-12-06T19:26:07.286784", "MEAN_MOTION": 13.77766746, "ECCENTRICITY": 0.01989343, "INCLINATION": 99.2135, "RA_OF_ASC_NODE": 82.6114, "ARG_OF_PERICENTER": 80.1084, "MEAN_ANOMALY": 45.977, "EPHEMERIS_TYPE": 0, "CLASSIFICATION_TYPE": "U", "NORAD_CAT_ID": 29858, "ELEMENT_SET_NO": 999, "REV_AT_EPOCH": 94472, "BSTAR": 0.0020069308, "MEAN_MOTION_DOT": 2.283e-05, "MEAN_MOTION_DDOT": 0}, "tle": {"line1": "1 29858U 99025FC  25340.80980656  .00002283  00000+0  20069-2 0  9996", "line2": "2 29858  99.2135  82.6114 0198934  80.1084  45.9770 13.77766746944722"}}, "geometry": {"type": "Point", "coordinates": [-95.42645299612383, 8.499749202470642]}}, {"type": "Feature", "properties": {"norad_id": 29859, "name": "FENGYUN 1C DEB", "group": "fengyun-1c-debris", "lat": 24.898747653218425, "lon": 0.6869575105669524, "alt_km": 913.9294704919648, "timestamp": "2025-12-07T09:35:10.062124+00:00", "meta": {"OBJECT_NAME": "FENGYUN 1C DEB", "OBJECT_ID": "1999-025FD", "EPOCH": "2025-12-06T11:50:05.333856", "MEAN_MOTION": 13.73974703, "ECCENTRICITY": 0.02954533, "INCLINATION": 98.3348, "RA_OF_ASC_NODE": 175.9934, "ARG_OF_PERICENTER": 229.8503, "MEAN_ANOMALY": 127.643, "EPHEMERIS_TYPE": 0, "CLASSIFICATION_TYPE": "U", "NORAD_CAT_ID": 29859, "ELEMENT_SET_NO": 999, "REV_AT_EPOCH": 93894, "BSTAR": 0.0046760833, "MEAN_MOTION_DOT": 5.981e-05, "MEAN_MOTION_DDOT": 0}, "tle": {"line1": "1 29859U 99025FD  25340.49311729  .00005981  00000+0  46761-2 0  9996", "line2": "2 29859  98.3348 175.9934 0295453 229.8503 127.6430 13.73974703938945"}}, "geometry": {"type": "Point", "coordinates": [0.6869575105669524, 24.898747653218425]}}, {"type": "Feature", "properties": {"norad_id": 29860, "name": "FENGYUN 1C DEB", "group": "fengyun-1c-debris", "lat": -49.2444685234047, "lon": -174.33032632045163, "alt_km": 1077.1414173438297, "timestamp": "2025-12-07T09:35:10.062134+00:00", "meta": {"OBJECT_NAME": "FENGYUN 1C DEB", "OBJECT_ID": "1999-025FE", "EPOCH": "2025-12-06T14:01:09.409152", "MEAN_MOTION": 13.77481867, "ECCENTRICITY": 0.02211015, "INCLINATION": 98.6168, "RA_OF_ASC_NODE": 15.0628, "ARG_OF_PERICENTER": 359.9985, "MEAN_ANOMALY": 151.1913, "EPHEMERIS_TYPE": 0, "CLASSIFICATION_TYPE": "U", "NORAD_CAT_ID": 29860, "ELEMENT_SET_NO": 999, "REV_AT_EPOCH": 94054, "BSTAR": 0.0037511406, "MEAN_MOTION_DOT": 4.435e-05, "MEAN_MOTION_DDOT": 0}, "tle": {"line1": "1 29860U 99025FE  25340.58413668  .00004435  00000+0  37511-2 0  9999", "line2": "2 29860  98.6168  15.0628 0221101 359.9985 151.1913 13.77481867940547"}}, "geometry": {"type": "Point", "coordinates": [-174.33032632045163, -49.2444685234047]}}, {"type": "Feature", "properties": {"norad_id": 29865, "name": "FENGYUN 1C DEB", "group": "fengyun-1c-debris", "lat": 69.13336236896451, "lon": 95.87225352607614, "alt_km": 561.1142297152173, "timestamp": "2025-12-07T09:35:10.062156+00:00", "meta": {"OBJECT_NAME": "FENGYUN 1C DEB", "OBJECT_ID": "1999-025FK", "EPOCH": "2025-12-06T16:59:52.697184", "MEAN_MOTION": 14.82493903, "ECCENTRICITY": 0.01160941, "INCLINATION": 98.9202, "RA_OF_ASC_NODE": 250.7698, "ARG_OF_PERICENTER": 160.3593, "MEAN_ANOMALY": 222.9396, "EPHEMERIS_TYPE": 0, "CLASSIFICATION_TYPE": "U", "NORAD_CAT_ID": 29865, "ELEMENT_SET_NO": 999, "REV_AT_EPOCH": 669, "BSTAR": 0.0011693107, "MEAN_MOTION_DOT": 0.00010504, "MEAN_MOTION_DDOT": 0}, "tle": {"line1": "1 29865U 99025FK  25340.70824881  .00010504  00000+0  11693-2 0  9998", "line2": "2 29865  98.9202 250.7698 0116094 160.3593 222.9396 14.82493903  6694"}}, "geometry": {"type": "Point", "coordinates": [95.87225352607614, 69.13336236896451]}}, {"type": "Feature", "properties": {"norad_id": 29866, "name": "FENGYUN 1C DEB", "group": "fengyun-1c-debris", "lat": -51.60355280629829, "lon": 136.98594401359588, "alt_km": 549.5938114263699, "timestamp": "2025-12-07T09:35:10.062168+00:00", "meta": {"OBJECT_NAME": "FENGYUN 1C DEB", "OBJECT_ID": "1999-025FL", "EPOCH": "2025-12-06T22:56:12.688224", "MEAN_MOTION": 14.64178845, "ECCENTRICITY": 0.01941664, "INCLINATION": 98.0365, "RA_OF_ASC_NODE": 326.8222, "ARG_OF_PERICENTER": 233.2092, "MEAN_ANOMALY": 181.553, "EPHEMERIS_TYPE": 0, "CLASSIFICATION_TYPE": "U", "NORAD_CAT_ID": 29866, "ELEMENT_SET_NO": 999, "REV_AT_EPOCH": 242, "BSTAR": 0.00051543563, "MEAN_MOTION_DOT": 3.515e-05, "MEAN_MOTION_DDOT": 0}, "tle": {"line1": "1 29866U 99025FL  25340.95570241  .00003515  00000+0  51544-3 0  9998", "line2": "2 29866  98.0365 326.8222 0194166 233.2092 181.5530 14.64178845  2426"}}, "geometry": {"type": "Point", "coordinates": [136.98594401359588, -51.60355280629829]}}]}